YOTSUBA-KULOVER         
1 65941U 98067XN  26050.26327401  .00136021  00000+0  93058-3 0  9993
2 65941  51.6247 152.3450 0005301 330.8697  29.2005 15.73822508 20592
BOTAN                   
1 65942U 98067XP  26050.28134835  .00518948  11839-3  14065-2 0  9991
2 65942  51.6150 147.1333 0009504 349.8754  10.2060 15.93581040 20665
E-KAGAKU-1              
1 65943U 98067XQ  26050.26495316  .00130486  00000+0  89980-3 0  9994
2 65943  51.6275 152.3701 0005345 342.4851  17.5963 15.73658104 20595
HRC MONOBLOCK CAMERA    
1 66052U 98067XR  26050.45676364  .00041717  00000+0  50518-3 0  9994
2 66052  51.6291 157.4096 0002466  22.2007 337.9093 15.60233204 19547
HTV-X1                  
1 66174U 25241A   26049.79608032  .00009878  00000+0  18896-3 0  9990
2 66174  51.6323 165.7431 0010935 112.1599 248.0551 15.48691264   516
SZ-21 MODULE            
1 66515U 25246C   26050.09062311  .00030016  00000+0  27526-3 0  9991
2 66515  41.4761 317.7232 0001783 298.3543  61.7118 15.67079513 15156
SHENZHOU-22             
1 66645U 25272A   26050.21688436  .00024817  00000+0  30290-3 0  9994
2 66645  41.4677 320.4938 0004452 142.8604 217.2543 15.59868728267645
SOYUZ-MS 28             
1 66664U 25275A   26049.79608032  .00009878  00000+0  18896-3 0  9991
2 66664  51.6323 165.7431 0010935 112.1599 248.0551 15.48691264  1285
DUPLEX                  
1 66906U 98067XS  26050.46962388  .00030797  00000+0  45690-3 0  9998
2 66906  51.6295 160.4944 0001556  74.2872 285.8290 15.54942449 12297
ISS OBJECT XT           
1 66907U 98067XT  26050.33664963  .00105849  00000+0  10883-2 0  9999
2 66907  51.6269 158.8527 0003165 339.0139  21.0725 15.64050709 12308
ISS OBJECT XU           
1 66908U 98067XU  26050.33580799  .00107410  00000+0  11017-2 0  9990
2 66908  51.6265 158.8444 0003046 343.8401  16.2496 15.64105787 12304
SILVERSAT               
1 66909U 98067XV  26050.49118826  .00126951  00000+0  12062-2 0  9998
2 66909  51.6280 157.6333 0003875 337.7125  22.3701 15.65947896 12337
