CCSDS_OMM_VERS = 2.0
CREATION_DATE  = 
ORIGINATOR     = 

OBJECT_NAME    = YOTSUBA-KULOVER
OBJECT_ID      = 1998-067XN
CENTER_NAME    = EARTH
REF_FRAME      = TEME
TIME_SYSTEM    = UTC
MEAN_ELEMENT_THEORY = SGP/SGP4

EPOCH          = 2026-02-19T06:19:06.874464
MEAN_MOTION    = 15.73822508
ECCENTRICITY   = .00053011
INCLINATION    = 51.6247
RA_OF_ASC_NODE = 152.3450
ARG_OF_PERICENTER = 330.8697
MEAN_ANOMALY   = 29.2005

EPHEMERIS_TYPE = 0
CLASSIFICATION_TYPE = U
NORAD_CAT_ID   = 65941
ELEMENT_SET_NO = 999
REV_AT_EPOCH   = 2059
BSTAR          = .93058153E-3
MEAN_MOTION_DOT = .136021E-2
MEAN_MOTION_DDOT = 0

CCSDS_OMM_VERS = 2.0
CREATION_DATE  = 
ORIGINATOR     = 

OBJECT_NAME    = BOTAN
OBJECT_ID      = 1998-067XP
CENTER_NAME    = EARTH
REF_FRAME      = TEME
TIME_SYSTEM    = UTC
MEAN_ELEMENT_THEORY = SGP/SGP4

EPOCH          = 2026-02-19T06:45:08.497440
MEAN_MOTION    = 15.93581040
ECCENTRICITY   = .00095045
INCLINATION    = 51.6150
RA_OF_ASC_NODE = 147.1333
ARG_OF_PERICENTER = 349.8754
MEAN_ANOMALY   = 10.2060

EPHEMERIS_TYPE = 0
CLASSIFICATION_TYPE = U
NORAD_CAT_ID   = 65942
ELEMENT_SET_NO = 999
REV_AT_EPOCH   = 2066
BSTAR          = .14065445E-2
MEAN_MOTION_DOT = .518948E-2
MEAN_MOTION_DDOT = .11838527E-3

CCSDS_OMM_VERS = 2.0
CREATION_DATE  = 
ORIGINATOR     = 

OBJECT_NAME    = E-KAGAKU-1
OBJECT_ID      = 1998-067XQ
CENTER_NAME    = EARTH
REF_FRAME      = TEME
TIME_SYSTEM    = UTC
MEAN_ELEMENT_THEORY = SGP/SGP4

EPOCH          = 2026-02-19T06:21:31.953024
MEAN_MOTION    = 15.73658104
ECCENTRICITY   = .00053452
INCLINATION    = 51.6275
RA_OF_ASC_NODE = 152.3701
ARG_OF_PERICENTER = 342.4851
MEAN_ANOMALY   = 17.5963

EPHEMERIS_TYPE = 0
CLASSIFICATION_TYPE = U
NORAD_CAT_ID   = 65943
ELEMENT_SET_NO = 999
REV_AT_EPOCH   = 2059
BSTAR          = .89980113E-3
MEAN_MOTION_DOT = .130486E-2
MEAN_MOTION_DDOT = 0

CCSDS_OMM_VERS = 2.0
CREATION_DATE  = 
ORIGINATOR     = 

OBJECT_NAME    = HRC MONOBLOCK CAMERA
OBJECT_ID      = 1998-067XR
CENTER_NAME    = EARTH
REF_FRAME      = TEME
TIME_SYSTEM    = UTC
MEAN_ELEMENT_THEORY = SGP/SGP4

EPOCH          = 2026-02-19T10:57:44.378496
MEAN_MOTION    = 15.60233204
ECCENTRICITY   = .0002466
INCLINATION    = 51.6291
RA_OF_ASC_NODE = 157.4096
ARG_OF_PERICENTER = 22.2007
MEAN_ANOMALY   = 337.9093

EPHEMERIS_TYPE = 0
CLASSIFICATION_TYPE = U
NORAD_CAT_ID   = 66052
ELEMENT_SET_NO = 999
REV_AT_EPOCH   = 1954
BSTAR          = .50518E-3
MEAN_MOTION_DOT = .41717E-3
MEAN_MOTION_DDOT = 0

CCSDS_OMM_VERS = 2.0
CREATION_DATE  = 
ORIGINATOR     = 

OBJECT_NAME    = HTV-X1
OBJECT_ID      = 2025-241A
CENTER_NAME    = EARTH
REF_FRAME      = TEME
TIME_SYSTEM    = UTC
MEAN_ELEMENT_THEORY = SGP/SGP4

EPOCH          = 2026-02-18T19:06:21.339648
MEAN_MOTION    = 15.48691264
ECCENTRICITY   = .00109355
INCLINATION    = 51.6323
RA_OF_ASC_NODE = 165.7431
ARG_OF_PERICENTER = 112.1599
MEAN_ANOMALY   = 248.0551

EPHEMERIS_TYPE = 0
CLASSIFICATION_TYPE = U
NORAD_CAT_ID   = 66174
ELEMENT_SET_NO = 999
REV_AT_EPOCH   = 51
BSTAR          = .18896108E-3
MEAN_MOTION_DOT = .9878E-4
MEAN_MOTION_DDOT = 0

CCSDS_OMM_VERS = 2.0
CREATION_DATE  = 
ORIGINATOR     = 

OBJECT_NAME    = SZ-21 MODULE
OBJECT_ID      = 2025-246C
CENTER_NAME    = EARTH
REF_FRAME      = TEME
TIME_SYSTEM    = UTC
MEAN_ELEMENT_THEORY = SGP/SGP4

EPOCH          = 2026-02-19T02:10:29.836704
MEAN_MOTION    = 15.67079513
ECCENTRICITY   = .0001783
INCLINATION    = 41.4761
RA_OF_ASC_NODE = 317.7232
ARG_OF_PERICENTER = 298.3543
MEAN_ANOMALY   = 61.7118

EPHEMERIS_TYPE = 0
CLASSIFICATION_TYPE = U
NORAD_CAT_ID   = 66515
ELEMENT_SET_NO = 999
REV_AT_EPOCH   = 1515
BSTAR          = .27525603E-3
MEAN_MOTION_DOT = .30016E-3
MEAN_MOTION_DDOT = 0

CCSDS_OMM_VERS = 2.0
CREATION_DATE  = 
ORIGINATOR     = 

OBJECT_NAME    = SHENZHOU-22
OBJECT_ID      = 2025-272A
CENTER_NAME    = EARTH
REF_FRAME      = TEME
TIME_SYSTEM    = UTC
MEAN_ELEMENT_THEORY = SGP/SGP4

EPOCH          = 2026-02-19T05:12:18.808704
MEAN_MOTION    = 15.59868728
ECCENTRICITY   = .00044524
INCLINATION    = 41.4677
RA_OF_ASC_NODE = 320.4938
ARG_OF_PERICENTER = 142.8604
MEAN_ANOMALY   = 217.2543

EPHEMERIS_TYPE = 0
CLASSIFICATION_TYPE = U
NORAD_CAT_ID   = 66645
ELEMENT_SET_NO = 999
REV_AT_EPOCH   = 26764
BSTAR          = .30289814E-3
MEAN_MOTION_DOT = .24817E-3
MEAN_MOTION_DDOT = 0

CCSDS_OMM_VERS = 2.0
CREATION_DATE  = 
ORIGINATOR     = 

OBJECT_NAME    = SOYUZ-MS 28
OBJECT_ID      = 2025-275A
CENTER_NAME    = EARTH
REF_FRAME      = TEME
TIME_SYSTEM    = UTC
MEAN_ELEMENT_THEORY = SGP/SGP4

EPOCH          = 2026-02-18T19:06:21.339648
MEAN_MOTION    = 15.48691264
ECCENTRICITY   = .00109355
INCLINATION    = 51.6323
RA_OF_ASC_NODE = 165.7431
ARG_OF_PERICENTER = 112.1599
MEAN_ANOMALY   = 248.0551

EPHEMERIS_TYPE = 0
CLASSIFICATION_TYPE = U
NORAD_CAT_ID   = 66664
ELEMENT_SET_NO = 999
REV_AT_EPOCH   = 128
BSTAR          = .18896108E-3
MEAN_MOTION_DOT = .9878E-4
MEAN_MOTION_DDOT = 0

CCSDS_OMM_VERS = 2.0
CREATION_DATE  = 
ORIGINATOR     = 

OBJECT_NAME    = DUPLEX
OBJECT_ID      = 1998-067XS
CENTER_NAME    = EARTH
REF_FRAME      = TEME
TIME_SYSTEM    = UTC
MEAN_ELEMENT_THEORY = SGP/SGP4

EPOCH          = 2026-02-19T11:16:15.503232
MEAN_MOTION    = 15.54942449
ECCENTRICITY   = .0001556
INCLINATION    = 51.6295
RA_OF_ASC_NODE = 160.4944
ARG_OF_PERICENTER = 74.2872
MEAN_ANOMALY   = 285.8290

EPHEMERIS_TYPE = 0
CLASSIFICATION_TYPE = U
NORAD_CAT_ID   = 66906
ELEMENT_SET_NO = 999
REV_AT_EPOCH   = 1229
BSTAR          = .4569E-3
MEAN_MOTION_DOT = .30797E-3
MEAN_MOTION_DDOT = 0

CCSDS_OMM_VERS = 2.0
CREATION_DATE  = 
ORIGINATOR     = 

OBJECT_NAME    = ISS OBJECT XT
OBJECT_ID      = 1998-067XT
CENTER_NAME    = EARTH
REF_FRAME      = TEME
TIME_SYSTEM    = UTC
MEAN_ELEMENT_THEORY = SGP/SGP4

EPOCH          = 2026-02-19T08:04:46.528032
MEAN_MOTION    = 15.64050709
ECCENTRICITY   = .0003165
INCLINATION    = 51.6269
RA_OF_ASC_NODE = 158.8527
ARG_OF_PERICENTER = 339.0139
MEAN_ANOMALY   = 21.0725

EPHEMERIS_TYPE = 0
CLASSIFICATION_TYPE = U
NORAD_CAT_ID   = 66907
ELEMENT_SET_NO = 999
REV_AT_EPOCH   = 1230
BSTAR          = .10883E-2
MEAN_MOTION_DOT = .105849E-2
MEAN_MOTION_DDOT = 0

CCSDS_OMM_VERS = 2.0
CREATION_DATE  = 
ORIGINATOR     = 

OBJECT_NAME    = ISS OBJECT XU
OBJECT_ID      = 1998-067XU
CENTER_NAME    = EARTH
REF_FRAME      = TEME
TIME_SYSTEM    = UTC
MEAN_ELEMENT_THEORY = SGP/SGP4

EPOCH          = 2026-02-19T08:03:33.810336
MEAN_MOTION    = 15.64105787
ECCENTRICITY   = .0003046
INCLINATION    = 51.6265
RA_OF_ASC_NODE = 158.8444
ARG_OF_PERICENTER = 343.8401
MEAN_ANOMALY   = 16.2496

EPHEMERIS_TYPE = 0
CLASSIFICATION_TYPE = U
NORAD_CAT_ID   = 66908
ELEMENT_SET_NO = 999
REV_AT_EPOCH   = 1230
BSTAR          = .11017E-2
MEAN_MOTION_DOT = .10741E-2
MEAN_MOTION_DDOT = 0

CCSDS_OMM_VERS = 2.0
CREATION_DATE  = 
ORIGINATOR     = 

OBJECT_NAME    = SILVERSAT
OBJECT_ID      = 1998-067XV
CENTER_NAME    = EARTH
REF_FRAME      = TEME
TIME_SYSTEM    = UTC
MEAN_ELEMENT_THEORY = SGP/SGP4

EPOCH          = 2026-02-19T11:47:18.665664
MEAN_MOTION    = 15.65947896
ECCENTRICITY   = .0003875
INCLINATION    = 51.6280
RA_OF_ASC_NODE = 157.6333
ARG_OF_PERICENTER = 337.7125
MEAN_ANOMALY   = 22.3701

EPHEMERIS_TYPE = 0
CLASSIFICATION_TYPE = U
NORAD_CAT_ID   = 66909
ELEMENT_SET_NO = 999
REV_AT_EPOCH   = 1233
BSTAR          = .12062E-2
MEAN_MOTION_DOT = .126951E-2
MEAN_MOTION_DDOT = 0

